0 FENGYUN 1C DEB
1 29816U 99025DJ  13281.45460933  .00002518  00000-0  75656-3 0  8177
2 29816 098.9434 344.3716 0322077 110.8039 009.3673 14.17595670347687
0 FENGYUN 1C DEB
1 29816U 99025DJ  13282.85477698  .00002767  00000-0  82962-3 0  8183
2 29816 098.9437 345.7832 0322004 106.8196 314.9189 14.17611589347880
0 FENGYUN 1C DEB
1 29816U 99025DJ  13284.11974965  .00003663  00000-0  10930-2 0  8195
2 29816 098.9438 347.0586 0321972 103.2150 290.5864 14.17617171348069
0 FENGYUN 1C DEB
1 29816U 99025DJ  13285.47828291  .00002312  00000-0  69570-3 0  8202
2 29816 098.9441 348.4286 0321916 099.3440 023.7653 14.17625110348255
0 FENGYUN 1C DEB
1 29816U 99025DJ  13286.74756949  .00002567  00000-0  77097-3 0  8219
2 29816 098.9441 349.7088 0321817 095.7330 021.5055 14.17628694348439
0 FENGYUN 1C DEB
1 29816U 99025DJ  13287.86499766  .00003707  00000-0  11064-2 0  8223
2 29816 098.9439 350.8358 0321744 092.5507 324.2664 14.17635394348590
0 FENGYUN 1C DEB
1 29816U 99025DJ  13289.12905370  .00004533  00000-0  13493-2 0  8234
2 29816 098.9440 352.1105 0321685 088.9444 295.3864 14.17645547348771
0 FENGYUN 1C DEB
1 29816U 99025DJ  13290.48978083  .00003885  00000-0  11587-2 0  8248
2 29816 098.9436 353.4827 0321627 085.0665 039.9061 14.17654874348965
0 FENGYUN 1C DEB
1 29816U 99025DJ  13291.81914892  .00002740  00000-0  82190-3 0  8253
2 29816 098.9429 354.8235 0321578 081.2780 344.4274 14.17662861349153
0 FENGYUN 1C DEB
1 29816U 99025DJ  13293.15793032  .00003219  00000-0  96328-3 0  8264
2 29816 098.9421 356.1736 0321443 077.4668 337.0207 14.17665915349347
0 FENGYUN 1C DEB
1 29816U 99025DJ  13294.85292306  .00003321  00000-0  99328-3 0  8278
2 29816 098.9418 357.8826 0321328 072.6384 347.6034 14.17676578349583
